[{"OBJECT_NAME":"STARLINK-34803","OBJECT_ID":"2025-165D","EPOCH":"2026-03-09T16:53:36.921120","MEAN_MOTION":15.05648567,"ECCENTRICITY":4.908e-5,"INCLINATION":97.6034,"RA_OF_ASC_NODE":147.2595,"ARG_OF_PERICENTER":122.652,"MEAN_ANOMALY":237.4754,"EPHEMERIS_TYPE":0,"CLASSIFICATION_TYPE":"U","NORAD_CAT_ID":65059,"ELEMENT_SET_NO":999,"REV_AT_EPOCH":3479,"BSTAR":0.00030325473,"MEAN_MOTION_DOT":4.317e-5,"MEAN_MOTION_DDOT":0},{"OBJECT_NAME":"SL-8 R\/B","OBJECT_ID":"1968-040B","EPOCH":"2026-03-09T18:37:46.369632","MEAN_MOTION":15.03260494,"ECCENTRICITY":0.00239141,"INCLINATION":74.0322,"RA_OF_ASC_NODE":313.5182,"ARG_OF_PERICENTER":137.361,"MEAN_ANOMALY":222.9441,"EPHEMERIS_TYPE":0,"CLASSIFICATION_TYPE":"U","NORAD_CAT_ID":3230,"ELEMENT_SET_NO":999,"REV_AT_EPOCH":9002,"BSTAR":0.00025747843,"MEAN_MOTION_DOT":3.469e-5,"MEAN_MOTION_DDOT":0}]
